CCSDS_OMM_VERS = 2.0
CREATION_DATE  = 
ORIGINATOR     = 

OBJECT_NAME    = COSMOS 2242
OBJECT_ID      = 1993-024A
CENTER_NAME    = EARTH
REF_FRAME      = TEME
TIME_SYSTEM    = UTC
MEAN_ELEMENT_THEORY = SGP/SGP4

EPOCH          = 2026-04-02T10:30:48.430656
MEAN_MOTION    = 14.96658579
ECCENTRICITY   = .00153794
INCLINATION    = 82.5170
RA_OF_ASC_NODE = 243.9944
ARG_OF_PERICENTER = 221.8663
MEAN_ANOMALY   = 138.1384

EPHEMERIS_TYPE = 0
CLASSIFICATION_TYPE = U
NORAD_CAT_ID   = 22626
ELEMENT_SET_NO = 999
REV_AT_EPOCH   = 78394
BSTAR          = .31042379E-3
MEAN_MOTION_DOT = .3573E-4
MEAN_MOTION_DDOT = 0

CCSDS_OMM_VERS = 2.0
CREATION_DATE  = 
ORIGINATOR     = 

OBJECT_NAME    = SL-16 R/B
OBJECT_ID      = 1993-059B
CENTER_NAME    = EARTH
REF_FRAME      = TEME
TIME_SYSTEM    = UTC
MEAN_ELEMENT_THEORY = SGP/SGP4

EPOCH          = 2026-04-02T21:33:05.615424
MEAN_MOTION    = 14.17234591
ECCENTRICITY   = .0017146
INCLINATION    = 70.9908
RA_OF_ASC_NODE = 320.0789
ARG_OF_PERICENTER = 180.8404
MEAN_ANOMALY   = 179.2694

EPHEMERIS_TYPE = 0
CLASSIFICATION_TYPE = U
NORAD_CAT_ID   = 22803
ELEMENT_SET_NO = 999
REV_AT_EPOCH   = 68296
BSTAR          = .25014E-4
MEAN_MOTION_DOT = .3E-7
MEAN_MOTION_DDOT = 0

CCSDS_OMM_VERS = 2.0
CREATION_DATE  = 
ORIGINATOR     = 

OBJECT_NAME    = ARIANE 40 R/B
OBJECT_ID      = 1993-061H
CENTER_NAME    = EARTH
REF_FRAME      = TEME
TIME_SYSTEM    = UTC
MEAN_ELEMENT_THEORY = SGP/SGP4

EPOCH          = 2026-04-02T15:36:29.962656
MEAN_MOTION    = 14.32873980
ECCENTRICITY   = .0010263
INCLINATION    = 98.4873
RA_OF_ASC_NODE = 161.0600
ARG_OF_PERICENTER = 207.3470
MEAN_ANOMALY   = 152.7175

EPHEMERIS_TYPE = 0
CLASSIFICATION_TYPE = U
NORAD_CAT_ID   = 22830
ELEMENT_SET_NO = 999
REV_AT_EPOCH   = 69753
BSTAR          = .10985E-3
MEAN_MOTION_DOT = .257E-5
MEAN_MOTION_DDOT = 0

CCSDS_OMM_VERS = 2.0
CREATION_DATE  = 
ORIGINATOR     = 

OBJECT_NAME    = COSMOS 2278
OBJECT_ID      = 1994-023A
CENTER_NAME    = EARTH
REF_FRAME      = TEME
TIME_SYSTEM    = UTC
MEAN_ELEMENT_THEORY = SGP/SGP4

EPOCH          = 2026-04-02T18:50:41.458848
MEAN_MOTION    = 14.14374693
ECCENTRICITY   = .0009312
INCLINATION    = 71.0507
RA_OF_ASC_NODE = 124.6876
ARG_OF_PERICENTER = 337.3869
MEAN_ANOMALY   = 22.6842

EPHEMERIS_TYPE = 0
CLASSIFICATION_TYPE = U
NORAD_CAT_ID   = 23087
ELEMENT_SET_NO = 999
REV_AT_EPOCH   = 64821
BSTAR          = -.27526E-5
MEAN_MOTION_DOT = -.53E-6
MEAN_MOTION_DDOT = 0

CCSDS_OMM_VERS = 2.0
CREATION_DATE  = 
ORIGINATOR     = 

OBJECT_NAME    = SL-16 R/B
OBJECT_ID      = 1994-023B
CENTER_NAME    = EARTH
REF_FRAME      = TEME
TIME_SYSTEM    = UTC
MEAN_ELEMENT_THEORY = SGP/SGP4

EPOCH          = 2026-04-02T18:00:11.683008
MEAN_MOTION    = 14.15018735
ECCENTRICITY   = .0005552
INCLINATION    = 71.0029
RA_OF_ASC_NODE = 20.3567
ARG_OF_PERICENTER = 264.3919
MEAN_ANOMALY   = 95.6571

EPHEMERIS_TYPE = 0
CLASSIFICATION_TYPE = U
NORAD_CAT_ID   = 23088
ELEMENT_SET_NO = 999
REV_AT_EPOCH   = 64949
BSTAR          = .13816E-3
MEAN_MOTION_DOT = .22E-5
MEAN_MOTION_DDOT = 0

CCSDS_OMM_VERS = 2.0
CREATION_DATE  = 
ORIGINATOR     = 

OBJECT_NAME    = SL-16 R/B
OBJECT_ID      = 1994-074B
CENTER_NAME    = EARTH
REF_FRAME      = TEME
TIME_SYSTEM    = UTC
MEAN_ELEMENT_THEORY = SGP/SGP4

EPOCH          = 2026-04-02T19:48:02.880576
MEAN_MOTION    = 14.79435927
ECCENTRICITY   = .0007615
INCLINATION    = 97.7072
RA_OF_ASC_NODE = 122.6616
ARG_OF_PERICENTER = 134.1055
MEAN_ANOMALY   = 39.2053

EPHEMERIS_TYPE = 0
CLASSIFICATION_TYPE = U
NORAD_CAT_ID   = 23343
ELEMENT_SET_NO = 999
REV_AT_EPOCH   = 69081
BSTAR          = .84048E-4
MEAN_MOTION_DOT = .578E-5
MEAN_MOTION_DDOT = 0

CCSDS_OMM_VERS = 2.0
CREATION_DATE  = 
ORIGINATOR     = 

OBJECT_NAME    = SL-16 R/B
OBJECT_ID      = 1994-077B
CENTER_NAME    = EARTH
REF_FRAME      = TEME
TIME_SYSTEM    = UTC
MEAN_ELEMENT_THEORY = SGP/SGP4

EPOCH          = 2026-04-02T20:43:41.367072
MEAN_MOTION    = 14.15568469
ECCENTRICITY   = .0001662
INCLINATION    = 70.9824
RA_OF_ASC_NODE = 301.6330
ARG_OF_PERICENTER = 191.9704
MEAN_ANOMALY   = 168.1379

EPHEMERIS_TYPE = 0
CLASSIFICATION_TYPE = U
NORAD_CAT_ID   = 23405
ELEMENT_SET_NO = 999
REV_AT_EPOCH   = 61965
BSTAR          = -.68634E-4
MEAN_MOTION_DOT = -.182E-5
MEAN_MOTION_DDOT = 0

CCSDS_OMM_VERS = 2.0
CREATION_DATE  = 
ORIGINATOR     = 

OBJECT_NAME    = ARIANE 40+ R/B
OBJECT_ID      = 1995-021B
CENTER_NAME    = EARTH
REF_FRAME      = TEME
TIME_SYSTEM    = UTC
MEAN_ELEMENT_THEORY = SGP/SGP4

EPOCH          = 2026-04-02T10:27:04.055040
MEAN_MOTION    = 14.39790101
ECCENTRICITY   = .0007863
INCLINATION    = 98.4456
RA_OF_ASC_NODE = 163.5915
ARG_OF_PERICENTER = 75.3741
MEAN_ANOMALY   = 295.4138

EPHEMERIS_TYPE = 0
CLASSIFICATION_TYPE = U
NORAD_CAT_ID   = 23561
ELEMENT_SET_NO = 999
REV_AT_EPOCH   = 62266
BSTAR          = .14861006E-3
MEAN_MOTION_DOT = .423E-5
MEAN_MOTION_DDOT = 0

CCSDS_OMM_VERS = 2.0
CREATION_DATE  = 
ORIGINATOR     = 

OBJECT_NAME    = SL-16 R/B
OBJECT_ID      = 1995-058B
CENTER_NAME    = EARTH
REF_FRAME      = TEME
TIME_SYSTEM    = UTC
MEAN_ELEMENT_THEORY = SGP/SGP4

EPOCH          = 2026-04-02T09:03:07.659936
MEAN_MOTION    = 14.15497952
ECCENTRICITY   = .00102399
INCLINATION    = 71.0194
RA_OF_ASC_NODE = 130.5263
ARG_OF_PERICENTER = 82.2364
MEAN_ANOMALY   = 277.9921

EPHEMERIS_TYPE = 0
CLASSIFICATION_TYPE = U
NORAD_CAT_ID   = 23705
ELEMENT_SET_NO = 999
REV_AT_EPOCH   = 57120
BSTAR          = -.37306639E-4
MEAN_MOTION_DOT = -.12E-5
MEAN_MOTION_DDOT = 0

CCSDS_OMM_VERS = 2.0
CREATION_DATE  = 
ORIGINATOR     = 

OBJECT_NAME    = SL-16 R/B
OBJECT_ID      = 1996-051B
CENTER_NAME    = EARTH
REF_FRAME      = TEME
TIME_SYSTEM    = UTC
MEAN_ELEMENT_THEORY = SGP/SGP4

EPOCH          = 2026-04-02T09:29:14.331264
MEAN_MOTION    = 14.12422837
ECCENTRICITY   = .00132091
INCLINATION    = 70.7582
RA_OF_ASC_NODE = 125.0648
ARG_OF_PERICENTER = 109.2675
MEAN_ANOMALY   = 250.9874

EPHEMERIS_TYPE = 0
CLASSIFICATION_TYPE = U
NORAD_CAT_ID   = 24298
ELEMENT_SET_NO = 999
REV_AT_EPOCH   = 52499
BSTAR          = .10989815E-3
MEAN_MOTION_DOT = .154E-5
MEAN_MOTION_DDOT = 0

CCSDS_OMM_VERS = 2.0
CREATION_DATE  = 
ORIGINATOR     = 

OBJECT_NAME    = ORBVIEW 2 (SEASTAR)
OBJECT_ID      = 1997-037A
CENTER_NAME    = EARTH
REF_FRAME      = TEME
TIME_SYSTEM    = UTC
MEAN_ELEMENT_THEORY = SGP/SGP4

EPOCH          = 2026-04-02T17:51:01.031616
MEAN_MOTION    = 14.35512177
ECCENTRICITY   = .0002149
INCLINATION    = 98.8608
RA_OF_ASC_NODE = 257.6982
ARG_OF_PERICENTER = 17.6430
MEAN_ANOMALY   = 342.4829

EPHEMERIS_TYPE = 0
CLASSIFICATION_TYPE = U
NORAD_CAT_ID   = 24883
ELEMENT_SET_NO = 999
REV_AT_EPOCH   = 51192
BSTAR          = .13523E-3
MEAN_MOTION_DOT = .342E-5
MEAN_MOTION_DDOT = 0

CCSDS_OMM_VERS = 2.0
CREATION_DATE  = 
ORIGINATOR     = 

OBJECT_NAME    = SL-16 R/B
OBJECT_ID      = 1998-043G
CENTER_NAME    = EARTH
REF_FRAME      = TEME
TIME_SYSTEM    = UTC
MEAN_ELEMENT_THEORY = SGP/SGP4

EPOCH          = 2026-04-02T14:05:24.163872
MEAN_MOTION    = 14.26055448
ECCENTRICITY   = .00090171
INCLINATION    = 98.8295
RA_OF_ASC_NODE = 46.1259
ARG_OF_PERICENTER = 309.6195
MEAN_ANOMALY   = 50.4188

EPHEMERIS_TYPE = 0
CLASSIFICATION_TYPE = U
NORAD_CAT_ID   = 25400
ELEMENT_SET_NO = 999
REV_AT_EPOCH   = 44239
BSTAR          = .54470928E-4
MEAN_MOTION_DOT = .85E-6
MEAN_MOTION_DDOT = 0

